{
  "type": "FeatureCollection",
  "features": [
    {
      "type": "Feature",
      "properties": {
        "norad_id": 35459,
        "name": "COSMOS 2251 DEB",
        "group": "cosmos-2251-debris",
        "lat": 40.985015387967366,
        "lon": -170.9343558805837,
        "alt_km": 760.6943988551911,
        "timestamp": "2025-12-19T14:48:36.644360+00:00",
        "meta_object_name": "COSMOS 2251 DEB",
        "meta_object_id": "1993-036ALD",
        "meta_epoch": "2025-12-17T19:11:00.873024",
        "meta_mean_motion": 14.37469257,
        "meta_eccentricity": 0.00161114,
        "meta_inclination": 73.8694,
        "meta_ra_of_asc_node": 177.8806,
        "meta_arg_of_pericenter": 124.2019,
        "meta_mean_anomaly": 236.0663,
        "meta_ephemeris_type": 0,
        "meta_classification_type": "U",
        "meta_norad_cat_id": 35459,
        "meta_element_set_no": 999,
        "meta_rev_at_epoch": 58434,
        "meta_bstar": 0.00020652063,
        "meta_mean_motion_dot": 5.92e-06,
        "meta_mean_motion_ddot": 0,
        "tle_line1": "1 35459U 93036ALD 25351.79931566  .00000592  00000+0  20652-3 0  9992",
        "tle_line2": "2 35459  73.8694 177.8806 0016111 124.2019 236.0663 14.37469257584349"
      },
      "geometry": {
        "type": "Point",
        "coordinates": [
          -170.9343558805837,
          40.985015387967366
        ]
      }
    },
    {
      "type": "Feature",
      "properties": {
        "norad_id": 35462,
        "name": "COSMOS 2251 DEB",
        "group": "cosmos-2251-debris",
        "lat": -73.38168553280182,
        "lon": 149.74091538026886,
        "alt_km": 744.1330337291411,
        "timestamp": "2025-12-19T14:48:36.644371+00:00",
        "meta_object_name": "COSMOS 2251 DEB",
        "meta_object_id": "1993-036ALG",
        "meta_epoch": "2025-12-15T12:08:22.276032",
        "meta_mean_motion": 14.29319782,
        "meta_eccentricity": 0.00867718,
        "meta_inclination": 74.0367,
        "meta_ra_of_asc_node": 263.6601,
        "meta_arg_of_pericenter": 298.2214,
        "meta_mean_anomaly": 61.0193,
        "meta_ephemeris_type": 0,
        "meta_classification_type": "U",
        "meta_norad_cat_id": 35462,
        "meta_element_set_no": 999,
        "meta_rev_at_epoch": 66420,
        "meta_bstar": 0.0011070348,
        "meta_mean_motion_dot": 2.91e-05,
        "meta_mean_motion_ddot": 0,
        "tle_line1": "1 35462U 93036ALG 25349.50581338  .00002910  00000+0  11070-2 0  9999",
        "tle_line2": "2 35462  74.0367 263.6601 0086771 298.2214  61.0193 14.29319782664204"
      },
      "geometry": {
        "type": "Point",
        "coordinates": [
          149.74091538026886,
          -73.38168553280182
        ]
      }
    },
    {
      "type": "Feature",
      "properties": {
        "norad_id": 35465,
        "name": "COSMOS 2251 DEB",
        "group": "cosmos-2251-debris",
        "lat": -23.216796236758334,
        "lon": 177.1288681075396,
        "alt_km": 703.8550196275255,
        "timestamp": "2025-12-19T14:48:36.644382+00:00",
        "meta_object_name": "COSMOS 2251 DEB",
        "meta_object_id": "1993-036ALK",
        "meta_epoch": "2025-12-17T13:03:02.562624",
        "meta_mean_motion": 14.44331537,
        "meta_eccentricity": 0.00642719,
        "meta_inclination": 73.9967,
        "meta_ra_of_asc_node": 188.0661,
        "meta_arg_of_pericenter": 347.2721,
        "meta_mean_anomaly": 12.6809,
        "meta_ephemeris_type": 0,
        "meta_classification_type": "U",
        "meta_norad_cat_id": 35465,
        "meta_element_set_no": 999,
        "meta_rev_at_epoch": 87311,
        "meta_bstar": 0.00028334394,
        "meta_mean_motion_dot": 9.72e-06,
        "meta_mean_motion_ddot": 0,
        "tle_line1": "1 35465U 93036ALK 25351.54377966  .00000972  00000+0  28334-3 0  9997",
        "tle_line2": "2 35465  73.9967 188.0661 0064271 347.2721  12.6809 14.44331537873113"
      },
      "geometry": {
        "type": "Point",
        "coordinates": [
          177.1288681075396,
          -23.216796236758334
        ]
      }
    },
    {
      "type": "Feature",
      "properties": {
        "norad_id": 35469,
        "name": "COSMOS 2251 DEB",
        "group": "cosmos-2251-debris",
        "lat": -48.77494804530957,
        "lon": -8.14950346717199,
        "alt_km": 776.6383635401398,
        "timestamp": "2025-12-19T14:48:36.644392+00:00",
        "meta_object_name": "COSMOS 2251 DEB",
        "meta_object_id": "1993-036ALP",
        "meta_epoch": "2025-12-17T10:03:24.635232",
        "meta_mean_motion": 14.49823782,
        "meta_eccentricity": 0.00766993,
        "meta_inclination": 74.0168,
        "meta_ra_of_asc_node": 15.0739,
        "meta_arg_of_pericenter": 169.3141,
        "meta_mean_anomaly": 190.9672,
        "meta_ephemeris_type": 0,
        "meta_classification_type": "U",
        "meta_norad_cat_id": 35469,
        "meta_element_set_no": 999,
        "meta_rev_at_epoch": 88179,
        "meta_bstar": 8.4078669e-05,
        "meta_mean_motion_dot": 3.07e-06,
        "meta_mean_motion_ddot": 0,
        "tle_line1": "1 35469U 93036ALP 25351.41903513  .00000307  00000+0  84079-4 0  9991",
        "tle_line2": "2 35469  74.0168  15.0739 0076699 169.3141 190.9672 14.49823782881797"
      },
      "geometry": {
        "type": "Point",
        "coordinates": [
          -8.14950346717199,
          -48.77494804530957
        ]
      }
    },
    {
      "type": "Feature",
      "properties": {
        "norad_id": 35475,
        "name": "COSMOS 2251 DEB",
        "group": "cosmos-2251-debris",
        "lat": -59.984348921562486,
        "lon": 122.5486938517423,
        "alt_km": 663.576209404283,
        "timestamp": "2025-12-19T14:48:36.644402+00:00",
        "meta_object_name": "COSMOS 2251 DEB",
        "meta_object_id": "1993-036ALV",
        "meta_epoch": "2025-12-19T03:40:04.410048",
        "meta_mean_motion": 14.69861051,
        "meta_eccentricity": 0.00203085,
        "meta_inclination": 74.021,
        "meta_ra_of_asc_node": 153.184,
        "meta_arg_of_pericenter": 225.894,
        "meta_mean_anomaly": 134.0561,
        "meta_ephemeris_type": 0,
        "meta_classification_type": "U",
        "meta_norad_cat_id": 35475,
        "meta_element_set_no": 999,
        "meta_rev_at_epoch": 65711,
        "meta_bstar": 0.001451326,
        "meta_mean_motion_dot": 8.683e-05,
        "meta_mean_motion_ddot": 0,
        "tle_line1": "1 35475U 93036ALV 25353.15282882  .00008683  00000+0  14513-2 0  9999",
        "tle_line2": "2 35475  74.0210 153.1840 0020308 225.8940 134.0561 14.69861051657116"
      },
      "geometry": {
        "type": "Point",
        "coordinates": [
          122.5486938517423,
          -59.984348921562486
        ]
      }
    },
    {
      "type": "Feature",
      "properties": {
        "norad_id": 35476,
        "name": "COSMOS 2251 DEB",
        "group": "cosmos-2251-debris",
        "lat": -65.67707576684225,
        "lon": 7.938373170740928,
        "alt_km": 651.0565100017602,
        "timestamp": "2025-12-19T14:48:36.644412+00:00",
        "meta_object_name": "COSMOS 2251 DEB",
        "meta_object_id": "1993-036ALW",
        "meta_epoch": "2025-12-18T23:09:20.948256",
        "meta_mean_motion": 14.75799485,
        "meta_eccentricity": 0.00180044,
        "meta_inclination": 73.9783,
        "meta_ra_of_asc_node": 48.6925,
        "meta_arg_of_pericenter": 27.387,
        "meta_mean_anomaly": 37.4197,
        "meta_ephemeris_type": 0,
        "meta_classification_type": "U",
        "meta_norad_cat_id": 35476,
        "meta_element_set_no": 999,
        "meta_rev_at_epoch": 87979,
        "meta_bstar": 0.0011118951,
        "meta_mean_motion_dot": 7.616e-05,
        "meta_mean_motion_ddot": 0,
        "tle_line1": "1 35476U 93036ALW 25352.96482579  .00007616  00000+0  11119-2 0  9997",
        "tle_line2": "2 35476  73.9783  48.6925 0018004  27.3870  37.4197 14.75799485879798"
      },
      "geometry": {
        "type": "Point",
        "coordinates": [
          7.938373170740928,
          -65.67707576684225
        ]
      }
    },
    {
      "type": "Feature",
      "properties": {
        "norad_id": 35580,
        "name": "COSMOS 2251 DEB",
        "group": "cosmos-2251-debris",
        "lat": -71.55532408831883,
        "lon": 107.03968582474506,
        "alt_km": 1016.0075894401825,
        "timestamp": "2025-12-19T14:48:36.644423+00:00",
        "meta_object_name": "COSMOS 2251 DEB",
        "meta_object_id": "1993-036ALX",
        "meta_epoch": "2025-12-18T20:08:01.258944",
        "meta_mean_motion": 13.83900216,
        "meta_eccentricity": 0.02809393,
        "meta_inclination": 73.9004,
        "meta_ra_of_asc_node": 168.3514,
        "meta_arg_of_pericenter": 172.4097,
        "meta_mean_anomaly": 188.1422,
        "meta_ephemeris_type": 0,
        "meta_classification_type": "U",
        "meta_norad_cat_id": 35580,
        "meta_element_set_no": 999,
        "meta_rev_at_epoch": 62341,
        "meta_bstar": 0.0016080562,
        "meta_mean_motion_dot": 2.398e-05,
        "meta_mean_motion_ddot": 0,
        "tle_line1": "1 35580U 93036ALX 25352.83890346  .00002398  00000+0  16081-2 0  9999",
        "tle_line2": "2 35580  73.9004 168.3514 0280939 172.4097 188.1422 13.83900216623410"
      },
      "geometry": {
        "type": "Point",
        "coordinates": [
          107.03968582474506,
          -71.55532408831883
        ]
      }
    }
  ]
}